{
  "type": "FeatureCollection",
  "features": [
    {
      "type": "Feature",
      "properties": {
        "norad_id": 41772,
        "name": "SKYSAT-C5",
        "group": "resource",
        "lat": 78.86895590561795,
        "lon": -8.251540046411627,
        "alt_km": 454.0595227182348,
        "timestamp": "2025-12-13T03:42:10.937552+00:00",
        "meta_object_name": "SKYSAT-C5",
        "meta_object_id": "2016-058C",
        "meta_epoch": "2025-12-11T13:47:56.889600",
        "meta_mean_motion": 15.34906129,
        "meta_eccentricity": 4.67e-05,
        "meta_inclination": 97.0751,
        "meta_ra_of_asc_node": 29.3759,
        "meta_arg_of_pericenter": 257.3192,
        "meta_mean_anomaly": 102.8,
        "meta_ephemeris_type": 0,
        "meta_classification_type": "U",
        "meta_norad_cat_id": 41772,
        "meta_element_set_no": 999,
        "meta_rev_at_epoch": 51498,
        "meta_bstar": 0.00046261,
        "meta_mean_motion_dot": 0.00015598,
        "meta_mean_motion_ddot": 0,
        "tle_line1": "1 41772U 16058C   25345.57496400  .00015598  00000+0  46261-3 0  9994",
        "tle_line2": "2 41772  97.0751  29.3759 0000467 257.3192 102.8000 15.34906129514981"
      },
      "geometry": {
        "type": "Point",
        "coordinates": [
          -8.251540046411627,
          78.86895590561795
        ]
      }
    },
    {
      "type": "Feature",
      "properties": {
        "norad_id": 41773,
        "name": "SKYSAT-C2",
        "group": "resource",
        "lat": 80.3457580085036,
        "lon": -121.77205554163974,
        "alt_km": 445.49540780002644,
        "timestamp": "2025-12-13T03:42:10.937563+00:00",
        "meta_object_name": "SKYSAT-C2",
        "meta_object_id": "2016-058D",
        "meta_epoch": "2025-12-12T00:43:35.830848",
        "meta_mean_motion": 15.37243964,
        "meta_eccentricity": 0.0004321,
        "meta_inclination": 97.0369,
        "meta_ra_of_asc_node": 10.587,
        "meta_arg_of_pericenter": 36.2464,
        "meta_mean_anomaly": 323.9073,
        "meta_ephemeris_type": 0,
        "meta_classification_type": "U",
        "meta_norad_cat_id": 41773,
        "meta_element_set_no": 999,
        "meta_rev_at_epoch": 51625,
        "meta_bstar": 0.00047659,
        "meta_mean_motion_dot": 0.00017332,
        "meta_mean_motion_ddot": 0,
        "tle_line1": "1 41773U 16058D   25346.03027582  .00017332  00000+0  47659-3 0  9998",
        "tle_line2": "2 41773  97.0369  10.5870 0004321  36.2464 323.9073 15.37243964516254"
      },
      "geometry": {
        "type": "Point",
        "coordinates": [
          -121.77205554163974,
          80.3457580085036
        ]
      }
    },
    {
      "type": "Feature",
      "properties": {
        "norad_id": 41774,
        "name": "SKYSAT-C3",
        "group": "resource",
        "lat": -63.421081669450004,
        "lon": 34.95238819020693,
        "alt_km": 441.44250268305495,
        "timestamp": "2025-12-13T03:42:10.937572+00:00",
        "meta_object_name": "SKYSAT-C3",
        "meta_object_id": "2016-058E",
        "meta_epoch": "2025-12-12T01:32:43.071360",
        "meta_mean_motion": 15.44357014,
        "meta_eccentricity": 0.00016227,
        "meta_inclination": 96.9305,
        "meta_ra_of_asc_node": 19.8415,
        "meta_arg_of_pericenter": 107.5379,
        "meta_mean_anomaly": 252.6048,
        "meta_ephemeris_type": 0,
        "meta_classification_type": "U",
        "meta_norad_cat_id": 41774,
        "meta_element_set_no": 999,
        "meta_rev_at_epoch": 51715,
        "meta_bstar": 0.00054672741,
        "meta_mean_motion_dot": 0.00025186,
        "meta_mean_motion_ddot": 0,
        "tle_line1": "1 41774U 16058E   25346.06438740  .00025186  00000+0  54673-3 0  9994",
        "tle_line2": "2 41774  96.9305  19.8415 0001622 107.5379 252.6048 15.44357014517158"
      },
      "geometry": {
        "type": "Point",
        "coordinates": [
          34.95238819020693,
          -63.421081669450004
        ]
      }
    },
    {
      "type": "Feature",
      "properties": {
        "norad_id": 41785,
        "name": "ALSAT 1B",
        "group": "resource",
        "lat": 45.79008538238854,
        "lon": -9.154844797988815,
        "alt_km": 646.1758136806156,
        "timestamp": "2025-12-13T03:42:10.937583+00:00",
        "meta_object_name": "ALSAT 1B",
        "meta_object_id": "2016-059C",
        "meta_epoch": "2025-12-12T04:39:16.344288",
        "meta_mean_motion": 14.72073762,
        "meta_eccentricity": 0.00107062,
        "meta_inclination": 97.7817,
        "meta_ra_of_asc_node": 358.0072,
        "meta_arg_of_pericenter": 104.5339,
        "meta_mean_anomaly": 255.7057,
        "meta_ephemeris_type": 0,
        "meta_classification_type": "U",
        "meta_norad_cat_id": 41785,
        "meta_element_set_no": 999,
        "meta_rev_at_epoch": 49306,
        "meta_bstar": 0.00010393317,
        "meta_mean_motion_dot": 6.07e-06,
        "meta_mean_motion_ddot": 0,
        "tle_line1": "1 41785U 16059C   25346.19393917  .00000607  00000+0  10393-3 0  9999",
        "tle_line2": "2 41785  97.7817 358.0072 0010706 104.5339 255.7057 14.72073762493062"
      },
      "geometry": {
        "type": "Point",
        "coordinates": [
          -9.154844797988815,
          45.79008538238854
        ]
      }
    },
    {
      "type": "Feature",
      "properties": {
        "norad_id": 41787,
        "name": "PATHFINDER 1",
        "group": "resource",
        "lat": 60.7319787025619,
        "lon": -175.90805297071063,
        "alt_km": 647.1288687915303,
        "timestamp": "2025-12-13T03:42:10.937593+00:00",
        "meta_object_name": "PATHFINDER 1",
        "meta_object_id": "2016-059E",
        "meta_epoch": "2025-12-11T23:20:45.576672",
        "meta_mean_motion": 14.67319027,
        "meta_eccentricity": 0.0030047,
        "meta_inclination": 97.8139,
        "meta_ra_of_asc_node": 348.7819,
        "meta_arg_of_pericenter": 83.5355,
        "meta_mean_anomaly": 276.927,
        "meta_ephemeris_type": 0,
        "meta_classification_type": "U",
        "meta_norad_cat_id": 41787,
        "meta_element_set_no": 999,
        "meta_rev_at_epoch": 49225,
        "meta_bstar": 0.0002355,
        "meta_mean_motion_dot": 1.291e-05,
        "meta_mean_motion_ddot": 0,
        "tle_line1": "1 41787U 16059E   25345.97274973  .00001291  00000+0  23550-3 0  9995",
        "tle_line2": "2 41787  97.8139 348.7819 0030047  83.5355 276.9270 14.67319027492254"
      },
      "geometry": {
        "type": "Point",
        "coordinates": [
          -175.90805297071063,
          60.7319787025619
        ]
      }
    },
    {
      "type": "Feature",
      "properties": {
        "norad_id": 41790,
        "name": "SCATSAT 1",
        "group": "resource",
        "lat": 51.24750200147476,
        "lon": -125.89004881423571,
        "alt_km": 588.5184769993039,
        "timestamp": "2025-12-13T03:42:10.937603+00:00",
        "meta_object_name": "SCATSAT 1",
        "meta_object_id": "2016-059H",
        "meta_epoch": "2025-12-12T02:46:20.071776",
        "meta_mean_motion": 14.78933776,
        "meta_eccentricity": 0.00562429,
        "meta_inclination": 98.1465,
        "meta_ra_of_asc_node": 42.7779,
        "meta_arg_of_pericenter": 129.9634,
        "meta_mean_anomaly": 230.6536,
        "meta_ephemeris_type": 0,
        "meta_classification_type": "U",
        "meta_norad_cat_id": 41790,
        "meta_element_set_no": 999,
        "meta_rev_at_epoch": 7393,
        "meta_bstar": 0.0003719498,
        "meta_mean_motion_dot": 2.761e-05,
        "meta_mean_motion_ddot": 0,
        "tle_line1": "1 41790U 16059H   25346.11551009  .00002761  00000+0  37195-3 0  9997",
        "tle_line2": "2 41790  98.1465  42.7779 0056242 129.9634 230.6536 14.78933776 73937"
      },
      "geometry": {
        "type": "Point",
        "coordinates": [
          -125.89004881423571,
          51.24750200147476
        ]
      }
    },
    {
      "type": "Feature",
      "properties": {
        "norad_id": 41875,
        "name": "GOKTURK 1A",
        "group": "resource",
        "lat": -8.5023532157526,
        "lon": 58.28711143897652,
        "alt_km": 688.5909394863384,
        "timestamp": "2025-12-13T03:42:10.937613+00:00",
        "meta_object_name": "GOKTURK 1A",
        "meta_object_id": "2016-073A",
        "meta_epoch": "2025-12-12T07:08:38.330304",
        "meta_mean_motion": 14.62779756,
        "meta_eccentricity": 0.00012417,
        "meta_inclination": 98.1423,
        "meta_ra_of_asc_node": 238.6686,
        "meta_arg_of_pericenter": 77.2028,
        "meta_mean_anomaly": 282.9313,
        "meta_ephemeris_type": 0,
        "meta_classification_type": "U",
        "meta_norad_cat_id": 41875,
        "meta_element_set_no": 999,
        "meta_rev_at_epoch": 48150,
        "meta_bstar": 0.0002289001,
        "meta_mean_motion_dot": 1.121e-05,
        "meta_mean_motion_ddot": 0,
        "tle_line1": "1 41875U 16073A   25346.29766586  .00001121  00000+0  22890-3 0  9999",
        "tle_line2": "2 41875  98.1423 238.6686 0001241  77.2028 282.9313 14.62779756481507"
      },
      "geometry": {
        "type": "Point",
        "coordinates": [
          58.28711143897652,
          -8.5023532157526
        ]
      }
    }
  ]
}